NORAD_CAT_ID,OBJECT_NAME,OBJECT_TYPE,EPOCH,MEAN_MOTION,ECCENTRICITY,INCLINATION,RA_OF_ASC_NODE,ARG_OF_PERICENTER,MEAN_ANOMALY,BSTAR,MEAN_MOTION_DOT,MEAN_MOTION_DDOT,TLE_LINE0,TLE_LINE1,TLE_LINE2,SEMIMAJOR_AXIS,PERIOD,APOGEE,PERIGEE,DECAYED
54776.0,STARLINK-5470,PAYLOAD,2024-01-09 05:45:46,15.08842646,0.00015,53.218,352.1885,98.6248,261.4914,1.7564e-06,-2.6e-06,0.0,0 STARLINK-5470,1 54776U 22175U   24009.24012453 -.00000260  00000-0  17564-5 0  9999,2 54776  53.2180 352.1885 0001500  98.6248 261.4914 15.08842646 58436,6917.872,95.437,540.775,538.7,0.0
54776.0,STARLINK-5470,PAYLOAD,2024-01-09 21:39:38,15.08846384,0.0001418,53.2181,349.2155,91.7738,268.3416,-6.2365e-05,-1.281e-05,0.0,0 STARLINK-5470,1 54776U 22175U   24009.90252695 -.00001281  00000-0 -62365-4 0  9999,2 54776  53.2181 349.2155 0001418  91.7738 268.3416 15.08846384 60697,6917.861,95.437,540.707,538.745,0.0
54776.0,STARLINK-5470,PAYLOAD,2024-01-10 07:11:56,15.08858079,0.000143,53.2182,347.4319,93.7567,266.3589,6.2802e-05,7.12e-06,0.0,0 STARLINK-5470,1 54776U 22175U   24010.29995425  .00000712  00000-0  62802-4 0  9990,2 54776  53.2182 347.4319 0001430  93.7567 266.3589 15.08858079 58595,6917.825,95.436,540.679,538.701,0.0
54776.0,STARLINK-5470,PAYLOAD,2024-01-11 03:51:58,15.08837786,0.0001552,53.2193,343.5672,78.2443,281.8724,5.5142e-05,5.9e-06,0.0,0 STARLINK-5470,1 54776U 22175U   24011.16109088  .00000590  00000-0  55142-4 0  9992,2 54776  53.2193 343.5672 0001552  78.2443 281.8724 15.08837786 58722,6917.887,95.438,540.826,538.679,0.0
54776.0,STARLINK-5470,PAYLOAD,2024-01-11 07:02:43,15.08844952,0.0001455,53.2185,342.9717,97.7277,262.3881,0.00011411,1.529e-05,0.0,0 STARLINK-5470,1 54776U 22175U   24011.29356412  .00001529  00000-0  11411-3 0  9994,2 54776  53.2185 342.9717 0001455  97.7277 262.3881 15.08844952 58742,6917.865,95.437,540.737,538.724,0.0
54776.0,STARLINK-5470,PAYLOAD,2024-01-12 03:42:45,15.08833922,0.0001625,53.2201,339.1058,91.9272,268.1906,0.00020689,3.006e-05,0.0,0 STARLINK-5470,1 54776U 22175U   24012.15469066  .00003006  00000-0  20689-3 0  9999,2 54776  53.2201 339.1058 0001625  91.9272 268.1906 15.08833922 58878,6917.899,95.438,540.888,538.64,0.0
54776.0,STARLINK-5470,PAYLOAD,2024-01-12 05:18:07,15.08844528,0.0001625,53.2184,338.8083,76.9254,283.192,3.9612e-05,3.43e-06,0.0,0 STARLINK-5470,1 54776U 22175U   24012.22092499  .00000343  00000-0  39612-4 0  9997,2 54776  53.2184 338.8083 0001625  76.9254 283.1920 15.08844528 58883,6917.867,95.437,540.856,538.607,0.0
54776.0,STARLINK-5470,PAYLOAD,2024-01-13 03:33:32,15.08838666,0.0002068,53.2197,334.6454,63.2418,296.8786,8.1171e-05,1.004e-05,0.0,0 STARLINK-5470,1 54776U 22175U   24013.14829291  .00001004  00000-0  81171-4 0  9999,2 54776  53.2197 334.6454 0002068  63.2418 296.8786 15.08838666 59020,6917.884,95.438,541.18,538.319,0.0
54776.0,STARLINK-5470,PAYLOAD,2024-01-14 06:35:05,15.08849337,0.0001719,53.2192,329.5889,98.9525,261.1662,0.0001735,2.475e-05,0.0,0 STARLINK-5470,1 54776U 22175U   24014.27436636  .00002475  00000-0  17350-3 0  9991,2 54776  53.2192 329.5889 0001719  98.9525 261.1662 15.08849337 59199,6917.852,95.437,540.906,538.528,0.0
54776.0,STARLINK-5470,PAYLOAD,2024-01-14 20:53:33,15.08841722,0.0001637,53.2193,326.9047,116.9377,243.1782,-1.1208e-05,-4.66e-06,0.0,0 STARLINK-5470,1 54776U 22175U   24014.87053028 -.00000466  00000-0 -11208-4 0  9994,2 54776  53.2193 326.9047 0001637 116.9377 243.1782 15.08841722 61446,6917.875,95.437,540.873,538.608,0.0
54776.0,STARLINK-5470,PAYLOAD,2024-01-15 03:15:06,15.08849518,0.0001891,53.219,325.7266,108.6154,251.5044,0.00014071,1.953e-05,0.0,0 STARLINK-5470,1 54776U 22175U   24015.13548690  .00001953  00000-0  14071-3 0  9998,2 54776  53.2190 325.7266 0001891 108.6154 251.5044 15.08849518 59325,6917.851,95.437,541.024,538.408,0.0
54776.0,STARLINK-5470,PAYLOAD,2024-01-16 01:30:30,15.08838187,0.0001789,53.2192,321.5597,100.4187,259.7007,-3.0541e-05,-7.74e-06,0.0,0 STARLINK-5470,1 54776U 22175U   24016.06285436 -.00000774  00000-0 -30541-4 0  9990,2 54776  53.2192 321.5597 0001789 100.4187 259.7007 15.08838187 59464,6917.886,95.438,540.989,538.513,0.0
54776.0,STARLINK-5470,PAYLOAD,2024-01-17 02:56:40,15.08846784,0.0001638,53.2184,316.8014,108.1844,251.9327,7.8202e-05,9.57e-06,0.0,0 STARLINK-5470,1 54776U 22175U   24017.12269038  .00000957  00000-0  78202-4 0  9995,2 54776  53.2184 316.8014 0001638 108.1844 251.9327 15.08846784 59623,6917.86,95.437,540.858,538.592,0.0
54776.0,STARLINK-5470,PAYLOAD,2024-01-18 04:22:51,15.08838156,0.0001565,53.2181,312.0432,99.708,260.4089,0.00021294,3.102e-05,0.0,0 STARLINK-5470,1 54776U 22175U   24018.18253777  .00003102  00000-0  21294-3 0  9998,2 54776  53.2181 312.0432 0001565  99.7080 260.4089 15.08838156 59789,6917.886,95.438,540.834,538.668,0.0
54776.0,STARLINK-5470,PAYLOAD,2024-01-18 05:58:14,15.08840893,0.0001402,53.2178,311.7486,93.3762,266.7391,0.00011327,1.515e-05,0.0,0 STARLINK-5470,1 54776U 22175U   24018.24877628  .00001515  00000-0  11327-3 0  9994,2 54776  53.2178 311.7486 0001402  93.3762 266.7391 15.08840893 61955,6917.878,95.437,540.713,538.773,0.0
54776.0,STARLINK-5470,PAYLOAD,2024-01-19 02:38:14,15.08851791,0.0001333,53.2171,307.8862,90.0752,270.0393,0.0001389,1.924e-05,0.0,0 STARLINK-5470,1 54776U 22175U   24019.10989066  .00001924  00000-0  13890-3 0  9991,2 54776  53.2171 307.8862 0001333  90.0752 270.0393 15.08851791 59921,6917.844,95.437,540.631,538.787,0.0
54776.0,STARLINK-5470,PAYLOAD,2024-01-19 04:13:37,15.0885834,0.0001419,53.2177,307.5847,102.4677,257.6474,0.00024264,3.578e-05,0.0,0 STARLINK-5470,1 54776U 22175U   24019.17612653  .00003578  00000-0  24264-3 0  9997,2 54776  53.2177 307.5847 0001419 102.4677 257.6474 15.08858340 62096,6917.824,95.436,540.671,538.708,0.0
54776.0,STARLINK-5470,PAYLOAD,2024-01-20 02:29:02,15.08845175,0.0001793,53.2184,303.422,68.5129,291.6055,0.00013121,1.801e-05,0.0,0 STARLINK-5470,1 54776U 22175U   24020.10349686  .00001801  00000-0  13121-3 0  9992,2 54776  53.2184 303.4220 0001793  68.5129 291.6055 15.08845175 60074,6917.865,95.437,540.97,538.489,0.0
54776.0,STARLINK-5470,PAYLOAD,2024-01-20 18:22:53,15.08838787,0.0001359,53.2183,300.4527,87.1682,272.9466,8.2517e-05,1.026e-05,0.0,0 STARLINK-5470,1 54776U 22175U   24020.76589841  .00001026  00000-0  82517-4 0  9998,2 54776  53.2183 300.4527 0001359  87.1682 272.9466 15.08838787 60179,6917.884,95.438,540.689,538.809,0.0
54776.0,STARLINK-5470,PAYLOAD,2024-01-20 23:09:02,15.08844113,0.000145,53.2171,299.5589,95.714,264.4017,-3.1487e-05,-7.89e-06,0.0,0 STARLINK-5470,1 54776U 22175U   24020.96461517 -.00000789  00000-0 -31487-4 0  9996,2 54776  53.2171 299.5589 0001450  95.7140 264.4017 15.08844113 62369,6917.868,95.437,540.736,538.73,0.0
54776.0,STARLINK-5470,PAYLOAD,2024-01-21 00:44:26,15.08844152,0.000171,53.2179,299.2633,72.3566,287.7612,-4.4225e-06,-3.58e-06,0.0,0 STARLINK-5470,1 54776U 22175U   24021.03085743 -.00000358  00000-0 -44225-5 0  9995,2 54776  53.2179 299.2633 0001710  72.3566 287.7612 15.08844152 62379,6917.868,95.437,540.916,538.55,0.0
54776.0,STARLINK-5470,PAYLOAD,2024-01-21 21:24:27,15.08840317,0.0001631,53.2173,295.3977,76.781,283.3364,3.6615e-05,2.95e-06,0.0,0 STARLINK-5470,1 54776U 22175U   24021.89198214  .00000295  00000-0  36615-4 0  9998,2 54776  53.2173 295.3977 0001631  76.7810 283.3364 15.08840317 62503,6917.879,95.438,540.873,538.616,0.0
54776.0,STARLINK-5470,PAYLOAD,2024-01-22 00:35:13,15.08842355,0.0001697,53.2175,294.8029,78.6803,281.438,5.5721e-05,5.99e-06,0.0,0 STARLINK-5470,1 54776U 22175U   24022.02446121  .00000599  00000-0  55721-4 0  9993,2 54776  53.2175 294.8029 0001697  78.6803 281.4380 15.08842355 60365,6917.873,95.437,540.912,538.564,0.0
54776.0,STARLINK-5470,PAYLOAD,2024-01-22 22:50:37,15.08836419,0.0001384,53.2168,290.6386,85.6443,274.4708,8.1322e-05,1.006e-05,0.0,0 STARLINK-5470,1 54776U 22175U   24022.95182568  .00001006  00000-0  81322-4 0  9997,2 54776  53.2168 290.6386 0001384  85.6443 274.4708 15.08836419 62663,6917.891,95.438,540.714,538.799,0.0
54776.0,STARLINK-5470,PAYLOAD,2024-01-23 00:26:00,15.08840732,0.0001396,53.2171,290.3408,94.8963,265.2189,0.00010722,1.419e-05,0.0,0 STARLINK-5470,1 54776U 22175U   24023.01806176  .00001419  00000-0  10722-3 0  9996,2 54776  53.2171 290.3408 0001396  94.8963 265.2189 15.08840732 62676,6917.878,95.438,540.709,538.777,0.0
54776.0,STARLINK-5470,PAYLOAD,2024-01-23 22:41:24,15.08849,0.0001402,53.2168,286.174,108.7417,251.3727,0.00013752,1.902e-05,0.0,0 STARLINK-5470,1 54776U 22175U   24023.94541706  .00001902  00000-0  13752-3 0  9996,2 54776  53.2168 286.1740 0001402 108.7417 251.3727 15.08849000 62818,6917.853,95.437,540.688,538.748,0.0
54776.0,STARLINK-5470,PAYLOAD,2024-01-24 00:16:47,15.0885118,0.0001434,53.2169,285.8765,109.9662,250.1485,0.00017251,2.459e-05,0.0,0 STARLINK-5470,1 54776U 22175U   24024.01165575  .00002459  00000-0  17251-3 0  9997,2 54776  53.2169 285.8765 0001434 109.9662 250.1485 15.08851180 60663,6917.846,95.437,540.703,538.719,0.0
54776.0,STARLINK-5470,PAYLOAD,2024-01-24 22:32:11,15.08839874,0.0001493,53.2172,281.7143,116.0563,244.0583,-1.9654e-05,-6.01e-06,0.0,0 STARLINK-5470,1 54776U 22175U   24024.93902147 -.00000601  00000-0 -19654-4 0  9991,2 54776  53.2172 281.7143 0001493 116.0563 244.0583 15.08839874 62968,6917.881,95.438,540.779,538.713,0.0
54776.0,STARLINK-5470,PAYLOAD,2024-01-25 00:07:34,15.08838617,0.0001283,53.2168,281.4179,101.6887,258.4249,-3.4561e-05,-8.38e-06,0.0,0 STARLINK-5470,1 54776U 22175U   24025.00526265 -.00000838  00000-0 -34561-4 0  9999,2 54776  53.2168 281.4179 0001283 101.6887 258.4249 15.08838617 60819,6917.885,95.438,540.637,538.862,0.0
54776.0,STARLINK-5470,PAYLOAD,2024-01-25 22:22:59,15.08837115,0.0001402,53.2181,277.2533,112.4699,247.6442,2.9094e-05,1.75e-06,0.0,0 STARLINK-5470,1 54776U 22175U   24025.93262850  .00000175  00000-0  29094-4 0  9995,2 54776  53.2181 277.2533 0001402 112.4699 247.6442 15.08837115 63118,6917.889,95.438,540.724,538.784,0.0
